id,address,ADDR_LINE1,ADDR_LINE2,CITY,STATE,ZIP
117,5 N CLEVELAND MASSILLON RD THOUSAND OAKS CA 91362,5 N CLEVELAND MASSILLON RD,,THOUSAND OAKS,CA,91362
179,3717 HAMANN INDUSTRIAL PKY SAN FRANCISCO CA 94104,3717 HAMANN INDUSTRIAL PKY,,SAN FRANCISCO,CA,94104
60,14302 PENNSYLVANIA AVE HUNTINGDON VALLEY PA 19006,14302 PENNSYLVANIA AVE,,HUNTINGDON VALLEY,PA,19006
62,53075 SW 152ND TER #615 MONROE TOWNSHIP NJ 8831,53075 SW 152ND TER,# 615,MONROE TOWNSHIP,NJ,8831
126,83 COUNTY ROAD 437 #8581 CLARKS SUMMIT PA 18411,83 COUNTY ROAD 437,# 8581,CLARKS SUMMIT,PA,18411
282,42744 HAMANN INDUSTRIAL PKY #82 MIAMI FL 33136,42744 HAMANN INDUSTRIAL PKY,# 82,MIAMI,FL,33136
318,1 RANCHO DEL MAR SHOPPING C PROVIDENCE RI 2903,,,PROVIDENCE,RI,2903
378,721 INTERSTATE 45 S COLORADO SPRINGS CO 80919,721 INTERSTATE 45 S,,COLORADO SPRINGS,CO,80919
270,77 MASSILLON RD #822 SATELLITE BEACH FL 32937,77 MASSILLON RD,# 822,SATELLITE BEACH,FL,32937
14,98 CONNECTICUT AVE NW CHAGRIN FALLS OH 44023,98 CONNECTICUT AVE NW,,CHAGRIN FALLS,OH,44023
326,80 PITTSFORD VICTOR RD #9 CLEVELAND OH 44103,80 PITTSFORD VICTOR RD,# 9,CLEVELAND,OH,44103
260,25 MINTERS CHAPEL RD #9 MINNEAPOLIS MN 55401,25 MINTERS CHAPEL RD,# 9,MINNEAPOLIS,MN,55401
451,51120 STATE ROUTE 18 SALT LAKE CITY UT 84115,51120 STATE ROUTE 18,,SALT LAKE CITY,UT,84115
304,13252 LIGHTHOUSE AVE CATHEDRAL CITY CA 92234,13252 LIGHTHOUSE AVE,,CATHEDRAL CITY,CA,92234
292,3882 W CONGRESS ST #799 LOS ANGELES CA 90016,3882 W CONGRESS ST,# 799,LOS ANGELES,CA,90016
53,98839 HAWTHORNE BLVD #6101 COLUMBIA SC 29201,98839 HAWTHORNE BLVD,# 6101,COLUMBIA,SC,29201
447,26849 JEFFERSON HWY ROLLING MEADOWS IL 60008,26849 JEFFERSON HWY,,ROLLING MEADOWS,IL,60008
241,433 WESTMINSTER BLVD #590 ROSEVILLE CA 95661,433 WESTMINSTER BLVD,# 590,ROSEVILLE,CA,95661
248,18 WATERLOO GENEVA RD HIGHLAND PARK IL 60035,18 WATERLOO GENEVA RD,,HIGHLAND PARK,IL,60035
113,2239 SHAWNEE MISSION PKY TULLAHOMA TN 37388,2239 SHAWNEE MISSION PKY,,TULLAHOMA,TN,37388
352,73 W BARSTOW AVE ARLINGTON HEIGHTS IL 60004,73 W BARSTOW AVE,,ARLINGTON HEIGHTS,IL,60004
466,35 E MAIN ST #43 ELK GROVE VILLAGE IL 60007,35 E MAIN ST,# 43,ELK GROVE VILLAGE,IL,60007
377,89 20TH ST E #779 STERLING HEIGHTS MI 48310,89 20TH ST E,# 779,STERLING HEIGHTS,MI,48310
116,55892 JACKSONVILLE RD OWINGS MILLS MD 21117,55892 JACKSONVILLE RD,,OWINGS MILLS,MD,21117
314,2845 BOULDER CRESCENT ST CLEVELAND OH 44103,2845 BOULDER CRESCENT ST,,CLEVELAND,OH,44103
310,596 SANTA MARIA AVE #7913 MESQUITE TX 75150,596 SANTA MARIA AVE,# 7913,MESQUITE,TX,75150
174,287 YOUNGSTOWN WARREN RD HAMPSTEAD MD 21074,287 YOUNGSTOWN WARREN RD,,HAMPSTEAD,MD,21074
386,539 COLDWATER CANYON AVE BLOOMFIELD NJ 7003,539 COLDWATER CANYON AVE,,BLOOMFIELD,NJ,7003
201,4252 N WASHINGTON AVE #9 KENNEDALE TX 76060,4252 N WASHINGTON AVE,# 9,KENNEDALE,TX,76060
207,6 MIDDLEGATE RD #106 SAN FRANCISCO CA 94107,6 MIDDLEGATE RD,# 106,SAN FRANCISCO,CA,94107
479,43496 COMMERCIAL DR #29 CHERRY HILL NJ 8003,43496 COMMERCIAL DR,# 29,CHERRY HILL,NJ,8003
430,9 STATE HIGHWAY 57 #22 JERSEY CITY NJ 7306,9 STATE HIGHWAY 57,# 22,JERSEY CITY,NJ,7306
489,3338 A LOCKPORT PL #6 MARGATE CITY NJ 8402,3338 LOCKPORT PL,# 6,MARGATE CITY,NJ,8402
209,577 PARADE ST SOUTH SAN FRANCISCO CA 94080,577 PARADE ST,,SOUTH SAN FRANCISCO,CA,94080
473,177 S RIDER TRL #52 CRYSTAL RIVER FL 34429,177 S RIDER TRL,# 52,CRYSTAL RIVER,FL,34429
193,326 E MAIN ST #6496 THOUSAND OAKS CA 91362,326 E MAIN ST,# 6496,THOUSAND OAKS,CA,91362
402,8590 LAKE LIZZIE DR BOWLING GREEN OH 43402,8590 LAKE LIZZIE DR,,BOWLING GREEN,OH,43402
392,810 N LA BREA AVE KING OF PRUSSIA PA 19406,810 N LA BREA AVE,,KING OF PRUSSIA,PA,19406
228,75684 S WITHLAPOPKA DR #32 DALLAS TX 75227,75684 S WITHLAPOPKA DR,# 32,DALLAS,TX,75227
274,6538 E POMONA ST #60 INDIANAPOLIS IN 46222,6538 E POMONA ST,# 60,INDIANAPOLIS,IN,46222
431,4 S WASHINGTON AVE SAN BERNARDINO CA 92410,4 S WASHINGTON AVE,,SAN BERNARDINO,CA,92410
57,14288 FOSTER AVE #4121 JENKINTOWN PA 19046,14288 FOSTER AVE,# 4121,JENKINTOWN,PA,19046
217,383 GUNDERMAN RD #197 COATESVILLE PA 19320,383 GUNDERMAN RD,# 197,COATESVILLE,PA,19320
94,1747 CALLE AMANECER #2 ANCHORAGE AK 99501,1747 CALLE AMANECER,# 2,ANCHORAGE,AK,99501
198,5384 SOUTHWYCK BLVD DOUGLASVILLE GA 30135,5384 SOUTHWYCK BLVD,,DOUGLASVILLE,GA,30135
98,7140 UNIVERSITY AVE ROCK SPRINGS WY 82901,7140 UNIVERSITY AVE,,ROCK SPRINGS,WY,82901
433,105 RICHMOND VALLEY RD ESCONDIDO CA 92025,105 RICHMOND VALLEY RD,,ESCONDIDO,CA,92025
102,524 LOUISIANA AVE NW SAN LEANDRO CA 94577,524 LOUISIANA AVE NW,,SAN LEANDRO,CA,94577
218,4441 POINT TERM MKT PHILADELPHIA PA 19143,4441 POINT TERM MKT,,PHILADELPHIA,PA,19143
419,34 RARITAN CENTER PKY BELLFLOWER CA 90706,34 RARITAN CENTER PKY,,BELLFLOWER,CA,90706
295,57254 BRICKELL AVE #372 WORCESTER MA 1602,57254 BRICKELL AVE,# 372,WORCESTER,MA,1602
448,2500 PRINGLE RD SE #508 HATFIELD PA 19440,2500 PRINGLE RD SE,# 508,HATFIELD,PA,19440
224,77132 COON RAPIDS BLVD NW CONROE TX 77301,77132 COON RAPIDS BLVD NW,,CONROE,TX,77301
296,8977 CONNECTICUT AVE NW #3 NILES MI 49120,8977 CONNECTICUT AVE NW,# 3,NILES,MI,49120
168,992 CIVIC CENTER DR PHILADELPHIA PA 19123,992 CIVIC CENTER DR,,PHILADELPHIA,PA,19123
17,69734 E CARRILLO ST MC MINNVILLE TN 37110,69734 E CARRILLO ST,,MC MINNVILLE,TN,37110
272,60 FILLMORE AVE HUNTINGTON BEACH CA 92647,60 FILLMORE AVE,,HUNTINGTON BEACH,CA,92647
340,8 US HIGHWAY 22 COLORADO SPRINGS CO 80937,8 US HIGHWAY 22,,COLORADO SPRINGS,CO,80937
91,4800 BLACK HORSE PIKE BURLINGAME CA 94010,4800 BLACK HORSE PIKE,,BURLINGAME,CA,94010
255,87393 E HIGHLAND RD INDIANAPOLIS IN 46220,87393 E HIGHLAND RD,,INDIANAPOLIS,IN,46220
123,52777 LEADERS HEIGHTS RD ONTARIO CA 91761,52777 LEADERS HEIGHTS RD,,ONTARIO,CA,91761
453,4119 METROPOLITAN DR LOS ANGELES CA 90021,4119 METROPOLITAN DR,,LOS ANGELES,CA,90021
481,50126 N PLANKINTON AVE LONGWOOD FL 32750,50126 N PLANKINTON AVE,,LONGWOOD,FL,32750
92,83649 W BELMONT AVE SAN GABRIEL CA 91776,83649 W BELMONT AVE,,SAN GABRIEL,CA,91776
177,2887 KNOWLTON ST #5435 BERKELEY CA 94710,2887 KNOWLTON ST,# 5435,BERKELEY,CA,94710
486,6 RIDGEWOOD CENTER DR OLD FORGE PA 18518,6 RIDGEWOOD CENTER DR,,OLD FORGE,PA,18518
10,228 RUNAMUCK PL #2808 BALTIMORE MD 21224,228 RUNAMUCK PL,# 2808,BALTIMORE,MD,21224
12,37275 ST RT 17M M MIDDLE ISLAND NY 11953,37275 ST RT,17M M,MIDDLE ISLAND,NY,11953
214,2026 N PLANKINTON AVE #3 AUSTIN TX 78754,2026 N PLANKINTON AVE,# 3,AUSTIN,TX,78754
199,97 AIRPORT LOOP DR JACKSONVILLE FL 32216,97 AIRPORT LOOP DR,,JACKSONVILLE,FL,32216
323,85092 SOUTHERN BLVD SAN ANTONIO TX 78204,85092 SOUTHERN BLVD,,SAN ANTONIO,TX,78204
71,701 S HARRISON RD SAN FRANCISCO CA 94104,701 S HARRISON RD,,SAN FRANCISCO,CA,94104
371,97 E 3RD ST #9 LONG ISLAND CITY NY 11101,97 E 3RD ST,# 9,LONG ISLAND CITY,NY,11101
42,7219 WOODFIELD RD OVERLAND PARK KS 66204,7219 WOODFIELD RD,,OVERLAND PARK,KS,66204
137,4 WAREHOUSE POINT RD #7 CHICAGO IL 60638,4 WAREHOUSE POINT RD,# 7,CHICAGO,IL,60638
363,9 PLAINSBORO RD #598 GREENSBORO NC 27409,9 PLAINSBORO RD,# 598,GREENSBORO,NC,27409
69,2853 S CENTRAL EXPY GLEN BURNIE MD 21061,2853 S CENTRAL EXPY GLEN,,BURNIE,MD,21061
146,60480 OLD US HIGHWAY 51 PRESTON MD 21655,60480 US HIGHWAY 51,,PRESTON,MD,21655
324,64 NEWMAN SPRINGS RD E BROOKLYN NY 11219,64 NEWMAN SPRINGS RD,,E BROOKLYN,NY,11219
267,5 S COLORADO BLVD #449 BOTHELL WA 98021,5 S COLORADO BLVD,# 449,BOTHELL,WA,98021
308,47857 CONEY ISLAND AVE CLINTON MD 20735,47857 CONEY ISLAND AVE,,CLINTON,MD,20735
160,1844 SOUTHERN BLVD LITTLE ROCK AR 72202,1844 SOUTHERN BLVD,,LITTLE ROCK,AR,72202
280,5 GREEN POND RD #4 SOUTHAMPTON PA 18966,5 GREEN POND RD,# 4,SOUTHAMPTON,PA,18966
95,99385 CHARITY ST #840 SAN JOSE CA 95110,99385 CHARITY ST,# 840,SAN JOSE,CA,95110
360,72119 S WALKER AVE #63 ANAHEIM CA 92801,72119 S WALKER AVE,# 63,ANAHEIM,CA,92801
265,669 PACKERLAND DR #1438 DENVER CO 80212,669 PACKERLAND DR,# 1438,DENVER,CO,80212
361,369 LATHAM ST #500 SAINT LOUIS MO 63102,369 LATHAM ST,# 500,SAINT LOUIS,MO,63102
156,55262 N FRENCH RD INDIANAPOLIS IN 46240,55262 N FRENCH RD,,INDIANAPOLIS,IN,46240
1,6649 N BLUE GUM ST NEW ORLEANS LA 70116,6649 N BLUE GUM ST,,NEW ORLEANS,LA,70116
35,2742 DISTRIBUTION WAY NEW YORK NY 10025,2742 DISTRIBUTION WAY,,NEW YORK,NY,10025
483,16452 GREENWICH ST GARDEN CITY NY 11530,16452 GREENWICH ST,,GARDEN CITY,NY,11530
456,55713 LAKE CITY HWY SOUTH BEND IN 46601,55713 LAKE CITY HWY,,SOUTH BEND,IN,46601
462,88827 FRANKFORD AVE GREENSBORO NC 27401,88827 FRANKFORD AVE,,GREENSBORO,NC,27401
464,62260 PARK STRE MONROE TOWNSHIP NJ 8831,62260 PARK STRE MONROE,,TOWNSHIP,NJ,8831
33,45 E LIBERTY ST RIDGEFIELD PARK NJ 7660,45 E LIBERTY ST,,RIDGEFIELD PARK,NJ,7660
475,1953 TELEGRAPH RD SAINT JOSEPH MO 64504,1953 TELEGRAPH RD,,SAINT JOSEPH,MO,64504
18,322 NEW HORIZON BLVD MILWAUKEE WI 53207,322 NEW HORIZON BLVD,,MILWAUKEE,WI,53207
249,506 S HACIENDA DR ATLANTIC CITY NJ 8401,506 S HACIENDA DR,,ATLANTIC CITY,NJ,8401
220,2140 DIAMOND BLVD ROHNERT PARK CA 94928,2140 DIAMOND BLVD,,ROHNERT PARK,CA,94928
3,8 W CERRITOS AVE #54 BRIDGEPORT NJ 8014,8 W CERRITOS AVE,# 54,BRIDGEPORT,NJ,8014
135,30553 WASHINGTON RD PLAINFIELD NJ 7062,30553 WASHINGTON RD,,PLAINFIELD,NJ,7062
452,1482 COLLEGE AVE FAYETTEVILLE NC 28301,1482 COLLEGE AVE,,FAYETTEVILLE,NC,28301
124,72868 BLACKINGTON AVE OAKLAND CA 94606,72868 BLACKINGTON AVE,,OAKLAND,CA,94606
254,3 RAILWAY AVE #75 LITTLE FALLS NJ 7424,3 RAILWAY AVE,# 75,LITTLE FALLS,NJ,7424
173,84 BLOOMFIELD AVE SPARTANBURG SC 29301,84 BLOOMFIELD AVE,,SPARTANBURG,SC,29301
349,8772 OLD COUNTY RD #5410 KENT WA 98032,8772 OLD COUNTY RD,# 5410,KENT,WA,98032
348,8116 MOUNT VERNON AVE BUCYRUS OH 44820,8116 MOUNT VERNON AVE,,BUCYRUS,OH,44820
391,29 CHERRY ST #7073 DES MOINES IA 50315,29 CHERRY ST,# 7073,DES MOINES,IA,50315
164,81 NORRIS AVE #525 RONKONKOMA NY 11779,81 NORRIS AVE,# 525,RONKONKOMA,NY,11779
233,560 CIVIC CENTER DR ANN ARBOR MI 48103,560 CIVIC CENTER DR,,ANN ARBOR,MI,48103
138,4940 PULASKI PARK DR PORTLAND OR 97202,4940 PULASKI PARK DR,,PORTLAND,OR,97202
141,61 13 STONERIDGE #835 FINDLAY OH 45840,61 13 STONERIDGE,# 835,FINDLAY,OH,45840
288,5221 BEAR VALLEY RD NASHVILLE TN 37211,5221 BEAR VALLEY RD,,NASHVILLE,TN,37211
120,8 COUNTY CENTER DR #647 BOSTON MA 2210,8 COUNTY CENTER DR,# 647,BOSTON,MA,2210
319,3943 N HIGHLAND AVE LANCASTER PA 17601,3943 N HIGHLAND AVE,,LANCASTER,PA,17601
474,2 W MOUNT ROYAL AVE FORTVILLE IN 46040,2 W MOUNT ROYAL AVE,,FORTVILLE,IN,46040
317,4 KOHLER MEMORIAL DR BROOKLYN NY 11230,4 KOHLER MEMORIAL DR,,BROOKLYN,NY,11230
184,6 HARRY L DR #6327 PERRYSBURG OH 43551,6 HARRY L DR,# 6327,PERRYSBURG,OH,43551
299,7563 CORNWALL RD #4462 DENVER PA 17517,7563 CORNWALL RD,# 4462,DENVER,PA,17517
89,3777 E RICHMOND ST #900 AKRON OH 44302,3777 E RICHMOND ST,# 900,AKRON,OH,44302
238,5 LITTLE RIVER TPKE WILMINGTON MA 1887,5 LITTLE RIVER TPKE,,WILMINGTON,MA,1887
66,3305 NABELL AVE #679 NEW YORK NY 10009,3305 NABELL AVE,# 679,NEW YORK,NY,10009
205,73 SOUTHERN BLVD PHILADELPHIA PA 19103,73 SOUTHERN BLVD,,PHILADELPHIA,PA,19103
96,68556 CENTRAL HWY SAN LEANDRO CA 94577,68556 CENTRAL HWY,,SAN LEANDRO,CA,94577
97,55 RIVERSIDE AVE INDIANAPOLIS IN 46202,55 RIVERSIDE AVE,,INDIANAPOLIS,IN,46202
206,189 VILLAGE PARK RD CRESTVIEW FL 32536,189 VILLAGE PARK RD,,CRESTVIEW,FL,32536
75,2737 PISTORIO RD #9230 LONDON OH 43140,2737 PISTORIO RD,# 9230,LONDON,OH,43140
413,18 CORONADO AVE #563 PASADENA CA 91106,18 CORONADO AVE,# 563,PASADENA,CA,91106
103,185 BLACKSTONE BLDGE HONOLULU HI 96817,185 BLACKSTONE,,BLDGE HONOLULU,HI,96817
73,30 W 80TH ST #1995 SAN CARLOS CA 94070,30 W 80TH ST,# 1995,SAN CARLOS,CA,94070
72,1088 PINEHURST ST CHAPEL HILL NC 27514,1088 PINEHURST ST,,CHAPEL HILL,NC,27514
211,4379 HIGHWAY 116 PHILADELPHIA PA 19103,4379 HIGHWAY 116,,PHILADELPHIA,PA,19103
90,3 FORT WORTH AVE PHILADELPHIA PA 19106,3 FORT WORTH AVE,,PHILADELPHIA,PA,19106
259,7 W WABANSIA AVE #227 ORLANDO FL 32822,7 W WABANSIA AVE,# 227,ORLANDO,FL,32822
359,9506 EDGEMORE AVE BLADENSBURG MD 20710,9506 EDGEMORE AVE,,BLADENSBURG,MD,20710
428,10276 BROOKS ST SAN FRANCISCO CA 94105,10276 BROOKS ST,,SAN FRANCISCO,CA,94105
256,67 E CHESTNUT HILL RD SEATTLE WA 98133,67 E CHESTNUT HILL RD,,SEATTLE,WA,98133
423,1610 14TH ST NW NEWPORT NEWS VA 23608,1610 14TH ST NW,,NEWPORT NEWS,VA,23608
306,96541 W CENTRAL BLVD PHOENIX AZ 85034,96541 W CENTRAL BLVD,,PHOENIX,AZ,85034
408,79 S HOWELL AVE GRAND RAPIDS MI 49546,79 S HOWELL AVE,,GRAND RAPIDS,MI,49546
242,66697 PARK PL #3224 RIVERTON WY 82501,66697 PARK PL,# 3224,RIVERTON,WY,82501
261,6882 TORRESDALE AVE COLUMBIA SC 29201,6882 TORRESDALE AVE,,COLUMBIA,SC,29201
162,63381 JENKS AVE PHILADELPHIA PA 19134,63381 JENKS AVE,,PHILADELPHIA,PA,19134
307,34 SAINT GEORGE AVE #2 BANGOR ME 4401,34 SAINT GEORGE AVE,# 2,BANGOR,ME,4401
258,8100 JACKSONVILLE RD #7 HAYS KS 67601,8100 JACKSONVILLE RD,# 7,HAYS,KS,67601
167,17 US HIGHWAY 111 ROUND ROCK TX 78664,17 US HIGHWAY 111,,ROUND ROCK,TX,78664
13,25 E 75TH ST #69 LOS ANGELES CA 90034,25 E 75TH ST,# 69,LOS ANGELES,CA,90034
186,9 WALES RD NE #914 HOMOSASSA FL 34448,9 WALES RD NE,# 914,HOMOSASSA,FL,34448
446,11360 S HALSTED ST SANTA ANA CA 92705,11360 S HALSTED ST,,SANTA ANA,CA,92705
83,11279 LOYTAN ST JACKSONVILLE FL 32254,11279 LOYTAN ST,,JACKSONVILLE,FL,32254
394,36 ENTERPRISE ST SE RICHLAND WA 99352,36 ENTERPRISE ST SE,,RICHLAND,WA,99352
298,43 HUEY P LONG AVE LAFAYETTE LA 70508,43 HUEY P LONG AVE,,LAFAYETTE,LA,70508
9,5 BOSTON AVE #88 SIOUX FALLS SD 57105,5 BOSTON AVE,# 88,SIOUX FALLS,SD,57105
492,5 WASHINGTON ST #1 ROSEVILLE CA 95678,5 WASHINGTON ST,# 1,ROSEVILLE,CA,95678
87,47154 WHIPPLE AVE NW GARDENA CA 90247,47154 WHIPPLE AVE NW,,GARDENA,CA,90247
247,9 VANOWEN ST COLLEGE STATION TX 77840,9 VANOWEN ST,,COLLEGE STATION,TX,77840
20,394 MANCHESTER BLVD ROCKFORD IL 61109,394 MANCHESTER BLVD,,ROCKFORD,IL,61109
343,8139 I HWY 10 #92 NEW BEDFORD MA 2745,8139 I HWY 10,# 92,NEW BEDFORD,MA,2745
145,9 N COLLEGE AVE #3 MILWAUKEE WI 53216,9 N COLLEGE AVE,# 3,MILWAUKEE,WI,53216
368,94290 S BUCHANAN ST PACIFICA CA 94044,94290 S BUCHANAN ST,,PACIFICA,CA,94044
189,4671 ALEMANY BLVD JERSEY CITY NJ 7304,4671 ALEMANY BLVD,,JERSEY CITY,NJ,7304
337,9581 E ARAPAHOE RD ROCHESTER MI 48307,9581 E ARAPAHOE RD,,ROCHESTER,MI,48307
346,3125 PACKER AVE #9851 AUSTIN TX 78753,3125 PACKER AVE,# 9851,AUSTIN,TX,78753
427,27846 LAFAYETTE AVE OAK HILL FL 32759,27846 LAFAYETTE AVE,,OAK HILL,FL,32759
335,39 MOCCASIN DR SAN FRANCISCO CA 94104,39 MOCCASIN DR,,SAN FRANCISCO,CA,94104
2,4 B BLUE RIDGE BLVD BRIGHTON MI 48116,4 BLUE RIDGE BLVD,,BRIGHTON,MI,48116
281,636 COMMERCE DR #42 SHAKOPEE MN 55379,636 COMMERCE DR,# 42,SHAKOPEE,MN,55379
468,21575 S APPLE CREEK RD OMAHA NE 68124,21575 S APPLE CREEK RD,,OMAHA,NE,68124
152,12270 CATON CENTER DR EUGENE OR 97401,12270 CATON CENTER DR,,EUGENE,OR,97401
153,749 W 18TH ST #45 SMITHFIELD NC 27577,749 W 18TH ST,# 45,SMITHFIELD,NC,27577
250,3732 SHERMAN AVE BRIDGEWATER NJ 8807,3732 SHERMAN AVE,,BRIDGEWATER,NJ,8807
227,7667 S HULEN ST #42 YONKERS NY 10701,7667 S HULEN ST,# 42,YONKERS,NY,10701
273,57 HAVEN AVE #90 SOUTHFIELD MI 48075,57 HAVEN AVE,# 90,SOUTHFIELD,MI,48075
275,6535 JOYCE ST WICHITA FALLS TX 76301,6535 JOYCE ST,,WICHITA FALLS,TX,76301
212,55 HAWTHORNE BLVD LAFAYETTE LA 70506,55 HAWTHORNE BLVD,,LAFAYETTE,LA,70506
234,3270 DEQUINDRE RD DEER PARK NY 11729,3270 DEQUINDRE RD,,DEER PARK,NY,11729
276,78112 MORRIS AVE NORTH HAVEN CT 6473,78112 MORRIS AVE,,NORTH HAVEN,CT,6473
268,944 GAITHER DR STRONGSVILLE OH 44136,944 GAITHER DR,,STRONGSVILLE,OH,44136
236,9122 CARPENTER AVE NEW HAVEN CT 6511,9122 CARPENTER AVE,,NEW HAVEN,CT,6511
175,6 VAN BUREN ST MOUNT VERNON NY 10553,6 VAN BUREN ST,,MOUNT VERNON,NY,10553
380,38 PLEASANT HILL RD HAYWARD CA 94545,38 PLEASANT HILL RD,,HAYWARD,CA,94545
26,1 CENTRAL AVE STEVENS POINT WI 54481,1 CENTRAL AVE,,STEVENS POINT,WI,54481
388,910 RAHWAY AVE PHILADELPHIA PA 19102,910 RAHWAY AVE,,PHILADELPHIA,PA,19102
390,35433 BLAKE ST #588 GARDENA CA 90248,35433 BLAKE ST,# 588,GARDENA,CA,90248
27,86 NW 66TH ST #8673 SHAWNEE KS 66218,86 NW 66TH ST,# 8673,SHAWNEE,KS,66218
86,461 PROSPECT PL #316 EULESS TX 76040,461 PROSPECT PL,# 316,EULESS,TX,76040
29,90991 THORBURN AVE NEW YORK NY 10011,90991 THORBURN AVE,,NEW YORK,NY,10011
81,31 DOUGLAS BLVD #950 CLOVIS NM 88101,31 DOUGLAS BLVD,# 950,CLOVIS,NM,88101
31,74874 ATLANTIC AVE COLUMBUS OH 43215,74874 ATLANTIC AVE,,COLUMBUS,OH,43215
410,2759 LIVINGSTON AVE MEMPHIS TN 38118,2759 LIVINGSTON AVE,,MEMPHIS,TN,38118
76,74989 BRANDON ST WELLSVILLE NY 14895,74989 BRANDON ST,,WELLSVILLE,NY,14895
420,6201 S NEVADA AVE TOMS RIVER NJ 8755,6201 S NEVADA AVE,,TOMS RIVER,NJ,8755
421,78 MARYLAND DR #146 DENVILLE NJ 7834,78 MARYLAND DR,# 146,DENVILLE,NJ,7834
56,4545 COURTHOUSE RD WESTBURY NY 11590,4545 COURTHOUSE RD,,WESTBURY,NY,11590
435,2 W BEVERLY BLVD HARRISBURG PA 17110,2 W BEVERLY BLVD,,HARRISBURG,PA,17110
457,75698 N FIESTA BLVD ORLANDO FL 32806,75698 N FIESTA BLVD,,ORLANDO,FL,32806
449,65 MOUNTAIN VIEW DR WHIPPANY NJ 7981,65 MOUNTAIN VIEW DR,,WHIPPANY,NJ,7981
454,2167 SIERRA RD EAST LANSING MI 48823,2167 SIERRA RD,,EAST LANSING,MI,48823
365,2215 PROSPERITY DR LYNDHURST NJ 7071,2215 PROSPERITY DR,,LYNDHURST,NJ,7071
338,33 N MICHIGAN AVE GREEN BAY WI 54301,33 N MICHIGAN AVE,,GREEN BAY,WI,54301
301,70099 E NORTH AVE ARLINGTON TX 76013,70099 E NORTH AVE,,ARLINGTON,TX,76013
302,3211 E NORTHEAST LOOP TAMPA FL 33619,3211 E NORTHEAST LOOP,,TAMPA,FL,33619
488,62 MONROE ST THOUSAND PALMS CA 92276,62 MONROE ST,,THOUSAND PALMS,CA,92276
313,40 9TH AVE SW #91 WATERFORD MI 48329,40 9TH AVE SW,# 91,WATERFORD,MI,48329
11,2371 JERROLD AVE KULPSVILLE PA 19443,2371 JERROLD AVE,,KULPSVILLE,PA,19443
362,3158 RUNAMUCK PL ROUND ROCK TX 78664,3158 RUNAMUCK PL,,ROUND ROCK,TX,78664
336,4 CARROLL ST NORTH ATTLEBORO MA 2760,4 CARROLL ST,,NORTH ATTLEBORO,MA,2760
16,73 STATE ROAD 434 E PHOENIX AZ 85013,73 STATE ROAD 434 E,,PHOENIX,AZ,85013
339,2 S BISCAYNE BLVD BALTIMORE MD 21230,2 S BISCAYNE BLVD,,BALTIMORE,MD,21230
350,868 STATE ST #38 CINCINNATI OH 45251,868 STATE ST,# 38,CINCINNATI,OH,45251
353,61047 MAYFIELD AVE BROOKLYN NY 11223,61047 MAYFIELD AVE,,BROOKLYN,NY,11223
354,2139 SANTA ROSA AVE ORLANDO FL 32801,2139 SANTA ROSA AVE,,ORLANDO,FL,32801
121,4646 KAAHUMANU ST HACKENSACK NJ 7601,4646 KAAHUMANU ST,,HACKENSACK,NJ,7601
482,38773 GRAVOIS AVE CHEYENNE WY 82001,38773 GRAVOIS AVE,,CHEYENNE,WY,82001
463,2 W SCYENE RD #3 BALTIMORE MD 21217,2 W SCYENE RD,# 3,BALTIMORE,MD,21217
493,8 S HAVEN ST DAYTONA BEACH FL 32114,8 S HAVEN ST,,DAYTONA BEACH,FL,32114
460,4 NW 12TH ST #3849 MADISON WI 53717,4 NW 12TH ST,# 3849,MADISON,WI,53717
252,4923 CAREY AVE SAINT LOUIS MO 63104,4923 CAREY AVE,,SAINT LOUIS,MO,63104
478,251 PARK AVE #979 SARATOGA CA 95070,251 PARK AVE,# 979,SARATOGA,CA,95070
407,28 S 7TH ST #2824 ENGLEWOOD NJ 7631,28 S 7TH ST,# 2824,ENGLEWOOD,NJ,7631
443,4 STOVALL ST #72 UNION CITY NJ 7087,4 STOVALL ST,# 72,UNION CITY,NJ,7087
438,90177 N 55TH AVE NASHVILLE TN 37211,90177 N 55TH AVE,,NASHVILLE,TN,37211
437,1 WASHINGTON ST LAKE WORTH FL 33461,1 WASHINGTON,,ST LAKE WORTH,FL,33461
257,33 LEWIS RD #46 BURLINGTON NC 27215,33 LEWIS RD,# 46,BURLINGTON,NC,27215
429,1 CENTURY PARK E SAN DIEGO CA 92110,1 CENTURY PARK E,,SAN DIEGO,CA,92110
290,7 S SAN MARCOS RD NEW YORK NY 10004,7 S SAN MARCOS RD,,NEW YORK,NY,10004
400,2094 MONTOUR BLVD MUSKEGON MI 49442,2094 MONTOUR BLVD,,MUSKEGON,MI,49442
264,26659 N 13TH ST COSTA MESA CA 92626,26659 N 13TH ST,,COSTA MESA,CA,92626
385,617 NW 36TH AVE BROOK PARK OH 44142,617 NW 36TH AVE,,BROOK PARK,OH,44142
382,63728 POWAY RD #1 SCRANTON PA 18509,63728 POWAY RD,# 1,SCRANTON,PA,18509
351,772 W RIVER DR BLOOMINGTON IN 47404,772 W RIVER DR,,BLOOMINGTON,IN,47404
278,3718 S MAIN ST NEW ORLEANS LA 70130,3718 S MAIN ST,,NEW ORLEANS,LA,70130
328,393 LAFAYETTE AVE RICHMOND VA 23219,393 LAFAYETTE AVE,,RICHMOND,VA,23219
312,13 S HACIENDA DR LIVINGSTON NJ 7039,13 S HACIENDA DR,,LIVINGSTON,NJ,7039
287,4 58TH ST #3519 SCOTTSDALE AZ 85254,4 58TH ST,# 3519,SCOTTSDALE,AZ,85254
357,92899 KALAKAUA AVE EL PASO TX 79925,92899 KALAKAUA AVE,,EL PASO,TX,79925
251,25657 LIVE OAK ST BROOKLYN NY 11226,25657 LIVE OAK ST,,BROOKLYN,NY,11226
219,2972 LAFAYETTE AVE GARDENA CA 90248,2972 LAFAYETTE AVE,,GARDENA,CA,90248
50,209 DECKER DR PHILADELPHIA PA 19132,209 DECKER DR,,PHILADELPHIA,PA,19132
183,6 S BROADWAY ST CEDAR GROVE NJ 7009,6 S BROADWAY ST,,CEDAR GROVE,NJ,7009
104,170 WYOMING AVE BURNSVILLE MN 55337,170 WYOMING AVE,,BURNSVILLE,MN,55337
192,70 EUCLID AVE #722 BOHEMIA NY 11716,70 EUCLID AVE,# 722,BOHEMIA,NY,11716
221,93 REDMOND RD #492 ORLANDO FL 32803,93 REDMOND RD,# 492,ORLANDO,FL,32803
229,5 ELMWOOD PARK BLVD BILOXI MS 39530,5 ELMWOOD PARK BLVD,,BILOXI,MS,39530
190,98 UNIVERSITY DR SAN RAMON CA 94583,98 UNIVERSITY DR,,SAN RAMON,CA,94583
148,429 TIGER LN BEVERLY HILLS CA 90212,429 TIGER LN,,BEVERLY HILLS,CA,90212
159,455 N MAIN AVE GARDEN CITY NY 11530,455 N MAIN AVE,,GARDEN CITY,NY,11530
232,3958 S DUPONT HWY #7 RAMSEY NJ 7446,3958 S DUPONT HWY,# 7,RAMSEY,NJ,7446
149,54169 N MAIN ST MASSAPEQUA NY 11758,54169 N MAIN ST,,MASSAPEQUA,NY,11758
327,87163 N MAIN AVE NEW YORK NY 10013,87163 N MAIN AVE,,NEW YORK,NY,10013
180,3 STATE ROUTE 35 S PARAMUS NJ 7652,3 STATE ROUTE 35 S,,PARAMUS,NJ,7652
279,9677 COMMERCE DR RICHMOND VA 23219,9677 COMMERCE DR,,RICHMOND,VA,23219
115,5161 DORSETT RD HOMESTEAD FL 33030,5161 DORSETT RD,,HOMESTEAD,FL,33030
284,61304 N FRENCH RD SOMERSET NJ 8873,61304 N FRENCH RD,,SOMERSET,NJ,8873
355,598 43RD ST BEVERLY HILLS CA 90210,598 43RD ST,,BEVERLY HILLS,CA,90210
286,94 W DODGE RD CARSON CITY NV 89701,94 W DODGE RD,,CARSON CITY,NV,89701
158,501 N 19TH AVE CHERRY HILL NJ 8002,501 N 19TH AVE,,CHERRY HILL,NJ,8002
182,9 MURFREESBORO RD CHICAGO IL 60623,9 MURFREESBORO RD,,CHICAGO,IL,60623
465,3424 29TH ST SE KERRVILLE TX 78028,3424 29TH ST SE,,KERRVILLE,TX,78028
65,59 SHADY LN #53 MILWAUKEE WI 53214,59 SHADY LN,# 53,MILWAUKEE,WI,53214
129,8597 W NATIONAL AVE COCOA FL 32922,8597 W NATIONAL AVE,,COCOA,FL,32922
59,65895 S 16TH ST PROVIDENCE RI 2909,65895 S 16TH ST,,PROVIDENCE,RI,2909
131,65 W MAPLE AVE PEARL CITY HI 96782,65 W MAPLE AVE,,PEARL CITY,HI,96782
63,59 N GROESBECK HWY AUSTIN TX 78731,59 N GROESBECK HWY,,AUSTIN,TX,78731
165,6916 W MAIN ST SACRAMENTO CA 95827,6916 W MAIN ST,,SACRAMENTO,CA,95827
176,229 N FORTY DRIV NEW YORK NY 10011,229 N FORTY DRIV,,NEW YORK,NY,10011
55,76 BROOKS ST #9 FLEMINGTON NJ 8822,76 BROOKS ST,# 9,FLEMINGTON,NJ,8822
133,798 LUND FARM WAY ROCKAWAY NJ 7866,798 LUND FARM WAY,,ROCKAWAY,NJ,7866
341,7422 MARTIN AVE #8 TOLEDO OH 43607,7422 MARTIN AVE,# 8,TOLEDO,OH,43607
434,22 SPRUCE ST #595 GARDENA CA 90248,22 SPRUCE ST,# 595,GARDENA,CA,90248
142,2409 ALABAMA RD RIVERSIDE CA 92501,2409 ALABAMA RD,,RIVERSIDE,CA,92501
39,775 W 17TH ST SAN ANTONIO TX 78204,775 W 17TH ST,,SAN ANTONIO,TX,78204
305,206 MAIN ST #2804 LANSING MI 48933,206 MAIN ST,# 2804,LANSING,MI,48933
45,20 S BABCOCK ST FAIRBANKS AK 99712,20 S BABCOCK ST,,FAIRBANKS,AK,99712
191,50 E WACKER DR BRIDGEWATER NJ 8807,50 E WACKER DR,,BRIDGEWATER,NJ,8807
210,70 MECHANIC ST NORTHRIDGE CA 91325,70 MECHANIC ST,,NORTHRIDGE,CA,91325
404,46314 ROUTE 130 BRIDGEPORT CT 6610,46314 ROUTE 130,,BRIDGEPORT,CT,6610
389,7 TARRYTOWN RD CINCINNATI OH 45217,7 TARRYTOWN RD,,CINCINNATI,OH,45217
387,735 CRAWFORD DR ANCHORAGE AK 99501,735 CRAWFORD DR,,ANCHORAGE,AK,99501
398,2094 NE 36TH AVE WORCESTER MA 1603,2094 NE 36TH AVE,,WORCESTER,MA,1603
101,4 WEBBS CHAPEL RD BOULDER CO 80303,4 WEBBS CHAPEL RD,,BOULDER,CO,80303
384,53 W CAREY ST PORT JERVIS NY 12771,53 W CAREY ST,,PORT JERVIS,NY,12771
495,1933 PACKER AVE #2 NOVATO CA 94945,1933 PACKER AVE,# 2,NOVATO,CA,94945
487,469 OUTWATER LN SAN DIEGO CA 92126,469 OUTWATER LN,,SAN DIEGO,CA,92126
82,44 W 4TH ST STATEN ISLAND NY 10309,44 W 4TH ST,,STATEN ISLAND,NY,10309
8,7 W JACKSON BLVD SAN JOSE CA 95111,7 W JACKSON BLVD,,SAN JOSE,CA,95111
253,3196 S RIDER TRL STOCKTON CA 95207,3196 S RIDER TRL,,STOCKTON,CA,95207
222,3989 PORTAGE TR ESCONDIDO CA 92025,3989 PORTAGE TR,,ESCONDIDO,CA,92025
213,7116 WESTERN AVE DEARBORN MI 48126,7116 WESTERN AVE,,DEARBORN,MI,48126
208,1128 DELAWARE ST SAN JOSE CA 95132,1128 DELAWARE ST,,SAN JOSE,CA,95132
48,5 TOMAHAWK DR LOS ANGELES CA 90006,5 TOMAHAWK DR,,LOS ANGELES,CA,90006
375,7 S BEVERLY DR FORT WAYNE IN 46802,7 S BEVERLY DR,,FORT WAYNE,IN,46802
469,747 LEONIS BLVD ANNANDALE VA 22003,747 LEONIS BLVD,,ANNANDALE,VA,22003
406,95 MAIN AVE #2 BARBERTON OH 44203,95 MAIN AVE,# 2,BARBERTON,OH,44203
414,72 BEECHWOOD TER CHICAGO IL 60657,72 BEECHWOOD TER,,CHICAGO,IL,60657
322,8 SHERIDAN RD JERSEY CITY NJ 7304,8 SHERIDAN RD,,JERSEY CITY,NJ,7304
84,69 MARQUETTE AVE HAYWARD CA 94545,69 MARQUETTE AVE,,HAYWARD,CA,94545
99,64 5TH AVE #1153 MC LEAN VA 22102,64 5TH AVE,# 1153,MC LEAN,VA,22102
67,18 FOUNTAIN ST ANCHORAGE AK 99515,18 FOUNTAIN ST,,ANCHORAGE,AK,99515
416,39 FRANKLIN AVE RICHLAND WA 99352,39 FRANKLIN AVE,,RICHLAND,WA,99352
358,395 S 6TH ST #2 EL CAJON CA 92020,395 S 6TH ST,# 2,EL CAJON,CA,92020
119,9390 S HOWELL AVE ALBANY GA 31701,9390 S HOWELL AVE,,ALBANY,GA,31701
356,70295 PIONEER CT BRANDON FL 33511,70295 PIONEER CT,,BRANDON,FL,33511
331,993 WASHINGTON AVE NUTLEY NJ 7110,993 WASHINGTON AVE,,NUTLEY,NJ,7110
403,87895 CONCORD RD LA MESA CA 91942,87895 CONCORD RD,,LA MESA,CA,91942
409,36 LANCASTER DR SE PEARL MS 39208,36 LANCASTER DR SE,,PEARL,MS,39208
239,3 N GROESBECK HWY TOLEDO OH 43613,3 N GROESBECK HWY,,TOLEDO,OH,43613
136,481 W LEMON ST MIDDLEBORO MA 2346,481 W LEMON ST,,MIDDLEBORO,MA,2346
370,10759 MAIN ST SCOTTSDALE AZ 85260,10759 MAIN ST,,SCOTTSDALE,AZ,85260
372,82 WINSOR ST #54 ATLANTA GA 30340,82 WINSOR ST,# 54,ATLANTA,GA,30340
401,393 HAMMOND DR LAFAYETTE LA 70506,393 HAMMOND DR,,LAFAYETTE,LA,70506
374,49440 DEARBORN ST NORWALK CT 6854,49440 DEARBORN ST,,NORWALK,CT,6854
114,2726 CHARCOT AVE PATERSON NJ 7501,2726 CHARCOT AVE,,PATERSON,NJ,7501
46,2 LIGHTHOUSE AVE HOPKINS MN 55343,2 LIGHTHOUSE AVE,,HOPKINS,MN,55343
369,7061 N 2ND ST BURNSVILLE MN 55337,7061 N 2ND ST,,BURNSVILLE,MN,55337
37,128 BRANSTEN RD NEW YORK NY 10011,128 BRANSTEN RD,,NEW YORK,NY,10011
303,26 MONTGOMERY ST ATLANTA GA 30328,26 MONTGOMERY ST,,ATLANTA,GA,30328
185,47939 PORTER AVE GARDENA CA 90248,47939 PORTER AVE,,GARDENA,CA,90248
188,99 TANK FARM RD HAZLETON PA 18201,99 TANK FARM RD,,HAZLETON,PA,18201
277,96950 HIDDEN LN ABERDEEN MD 21001,96950 HIDDEN LN,,ABERDEEN,MD,21001
294,45 2ND AVE #9759 ATLANTA GA 30328,45 2ND AVE,# 9759,ATLANTA,GA,30328
178,523 MARQUETTE AVE CONCORD MA 1742,523 MARQUETTE AVE,,CONCORD,MA,1742
38,17 MORENA BLVD CAMARILLO CA 93012,17 MORENA BLVD,,CAMARILLO,CA,93012
459,7 FLOWERS RD #403 TRENTON NJ 8611,7 FLOWERS RD,# 403,TRENTON,NJ,8611
300,22 BRIDLE LN VALLEY PARK MO 63088,22 BRIDLE LN,,VALLEY PARK,MO,63088
170,73 SAINT ANN ST #86 RENO NV 89502,73 SAINT ANN ST,# 86,RENO,NV,89502
203,703 BEVILLE RD OPA LOCKA FL 33054,703 BEVILLE RD,,OPA LOCKA,FL,33054
22,6 GREENLEAF AVE SAN JOSE CA 95111,6 GREENLEAF AVE,,SAN JOSE,CA,95111
285,87 IMPERIAL CT #79 FARGO ND 58102,87 IMPERIAL CT,# 79,FARGO,ND,58102
231,38062 E MAIN ST NEW YORK NY 10048,38062 E MAIN ST,,NEW YORK,NY,10048
262,985 E 6TH AVE SANTA ROSA CA 95407,985 E 6TH AVE,,SANTA ROSA,CA,95407
235,1 GARFIELD AVE #7 CANTON OH 44707,1 GARFIELD AVE,# 7,CANTON,OH,44707
243,96263 GREENWOOD PL WARREN ME 4864,96263 GREENWOOD PL,,WARREN,ME,4864
484,40 CAMBRIDGE AVE MADISON WI 53715,40 CAMBRIDGE AVE,,MADISON,WI,53715
225,755 HARBOR WAY MILWAUKEE WI 53226,755 HARBOR WAY,,MILWAUKEE,WI,53226
499,61556 W 20TH AVE SEATTLE WA 98104,61556 W 20TH AVE,,SEATTLE,WA,98104
41,2881 LEWIS RD PRINEVILLE OR 97754,2881 LEWIS RD,,PRINEVILLE,OR,97754
498,89992 E 15TH ST ALLIANCE NE 69301,89992 E 15TH ST,,ALLIANCE,NE,69301
411,17 JERSEY AVE ENGLEWOOD CO 80110,17 JERSEY AVE,,ENGLEWOOD,CO,80110
240,37 N ELM ST #916 TACOMA WA 98409,37 N ELM ST,# 916,TACOMA,WA,98409
467,7163 W CLARK RD FREEHOLD NJ 7728,7163 W CLARK RD,,FREEHOLD,NJ,7728
422,76598 RD I 95 #1 DENVER CO 80216,76598 RD I 95,# 1,DENVER,CO,80216
418,32820 CORKWOOD RD NEWARK NJ 7104,32820 CORKWOOD RD,,NEWARK,NJ,7104
74,20932 HEDLEY ST CONCORD CA 94520,20932 HEDLEY ST,,CONCORD,CA,94520
106,7 W PINHOOK RD LYNBROOK NY 11563,7 W PINHOOK RD,,LYNBROOK,NY,11563
19,1 STATE ROUTE 27 TAYLOR MI 48180,1 STATE ROUTE 27,,TAYLOR,MI,48180
24,74 S WESTGATE ST ALBANY NY 12204,74 S WESTGATE ST,,ALBANY,NY,12204
269,66552 MALONE RD PLAISTOW NH 3865,66552 MALONE RD,,PLAISTOW,NH,3865
476,63517 DUPONT ST JACKSON MS 39211,63517 DUPONT ST,,JACKSON,MS,39211
78,47565 W GRAND AVE NEWARK NJ 7105,47565 W GRAND AVE,,NEWARK,NJ,7105
32,366 SOUTH DR LAS CRUCES NM 88011,366 SOUTH DR,,LAS CRUCES,NM,88011
23,618 W YAKIMA AVE IRVING TX 75062,618 W YAKIMA AVE,,IRVING,TX,75062
15,56 E MOREHEAD ST LAREDO TX 78045,56 E MOREHEAD ST,,LAREDO,TX,78045
107,1 COMMERCE WAY PORTLAND OR 97224,1 COMMERCE WAY,,PORTLAND,OR,97224
202,42754 S ASH AVE BUFFALO NY 14228,42754 S ASH AVE,,BUFFALO,NY,14228
88,37 ALABAMA AVE EVANSTON IL 60201,37 ALABAMA AVE,,EVANSTON,IL,60201
134,9387 CHARCOT AVE ABSECON NJ 8201,9387 CHARCOT AVE,,ABSECON,NJ,8201
325,48 STRATFORD AVE POMONA CA 91768,48 STRATFORD AVE,,POMONA,CA,91768
161,2023 GREG ST SAINT PAUL MN 55101,2023 GREG ST,,SAINT PAUL,MN,55101
163,6651 MUNICIPAL RD HOUMA LA 70360,6651 MUNICIPAL RD,,HOUMA,LA,70360
442,82 US HIGHWAY 46 CLIFTON NJ 7011,82 US HIGHWAY 46,,CLIFTON,NJ,7011
40,6980 DORSETT RD ABILENE KS 67410,6980 DORSETT RD,,ABILENE,KS,67410
51,4486 W O ST #1 NEW YORK NY 10003,4486 W O ST,# 1,NEW YORK,NY,10003
334,201 RIDGEWOOD RD MOSCOW ID 83843,201 RIDGEWOOD RD,,MOSCOW,ID,83843
424,86350 ROSZEL RD PHOENIX AZ 85012,86350 ROSZEL RD,,PHOENIX,AZ,85012
311,3829 VENTURA BLVD BUTTE MT 59701,3829 VENTURA BLVD,,BUTTE,MT,59701
169,303 N RADCLIFFE ST HILO HI 96720,303 N RADCLIFFE ST,,HILO,HI,96720
140,137 PIONEER WAY CHICAGO IL 60604,137 PIONEER WAY,,CHICAGO,IL,60604
147,4 BLOOMFIELD AVE IRVING TX 75061,4 BLOOMFIELD AVE,,IRVING,TX,75061
321,60 OLD DOVER RD HIALEAH FL 33014,60 OLD DOVER RD,,HIALEAH,FL,33014
342,94 CHASE RD HYATTSVILLE MD 20785,94 CHASE RD,,HYATTSVILLE,MD,20785
432,25 SE 176TH PL CAMBRIDGE MA 2138,25 SE 176TH PL,,CAMBRIDGE,MA,2138
293,4 E COLONIAL DR LA MESA CA 91942,4 E COLONIAL DR,,LA MESA,CA,91942
150,92 MAIN ST ATLANTIC CITY NJ 8401,92 MAIN ST,,ATLANTIC CITY,NJ,8401
64,2664 LEWIS RD LITTLETON CO 80126,2664 LEWIS RD,,LITTLETON,CO,80126
151,72 MANNIX DR CINCINNATI OH 45203,72 MANNIX DR,,CINCINNATI,OH,45203
291,812 S HAVEN ST AMARILLO TX 79109,812 S HAVEN ST,,AMARILLO,TX,79109
426,9 W CENTRAL AVE PHOENIX AZ 85013,9 W CENTRAL AVE,,PHOENIX,AZ,85013
127,1 N HARLEM AVE #9 ORANGE NJ 7050,1 N HARLEM AVE,# 9,ORANGE,NJ,7050
445,63 SMITH LN #8343 MOSS TN 38575,63 SMITH LN,# 8343,MOSS,TN,38575
497,2 SW NYBERG RD ELKHART IN 46514,2 SW NYBERG RD,,ELKHART,IN,46514
43,1048 MAIN ST FAIRBANKS AK 99708,1048 MAIN ST,,FAIRBANKS,AK,99708
54,71 SAN MATEO AVE WAYNE PA 19087,71 SAN MATEO AVE,,WAYNE,PA,19087
441,80312 W 32ND ST CONROE TX 77301,80312 W 32ND ST,,CONROE,TX,77301
439,9 TOWER AVE BURLINGTON KY 41005,9 TOWER AVE,,BURLINGTON,KY,41005
79,4284 DORIGO LN CHICAGO IL 60647,4284 DORIGO LN,,CHICAGO,IL,60647
458,88 SW 28TH TER HARRISON NJ 7029,88 SW 28TH TER,,HARRISON,NJ,7029
25,3273 STATE ST MIDDLESEX NJ 8846,3273 STATE ST,,MIDDLESEX,NJ,8846
28,2 CEDAR AVE #84 EASTON MD 21601,2 CEDAR AVE,# 84,EASTON,MD,21601
472,62 W AUSTIN ST SYOSSET NY 11791,62 W AUSTIN ST,,SYOSSET,NY,11791
85,70 W MAIN ST BEACHWOOD OH 44122,70 W MAIN ST,,BEACHWOOD,OH,44122
500,63 E AURORA DR ORLANDO FL 32804,63 E AURORA DR,,ORLANDO,FL,32804
154,8 INDUSTRY LN NEW YORK NY 10002,8 INDUSTRY LN,,NEW YORK,NY,10002
204,5 HARRISON RD NEW YORK NY 10038,5 HARRISON RD,,NEW YORK,NY,10038
139,627 WALFORD AVE DALLAS TX 75227,627 WALFORD AVE,,DALLAS,TX,75227
143,8927 VANDEVER AVE WACO TX 76707,8927 VANDEVER AVE,,WACO,TX,76707
333,3381 E 40TH AVE PASSAIC NJ 7055,3381 E 40TH AVE,,PASSAIC,NJ,7055
330,49 N MAYS ST BROUSSARD LA 70518,49 N MAYS ST,,BROUSSARD,LA,70518
144,134 LEWIS RD NASHVILLE TN 37211,134 LEWIS RD,,NASHVILLE,TN,37211
316,2 S 15TH ST FORT WORTH TX 76107,2 S 15TH,,ST FORT WORTH,TX,76107
263,7 WEST AVE #1 PALATINE IL 60067,7 WEST AVE,# 1,PALATINE,IL,60067
155,1 HUNTWOOD AVE PHOENIX AZ 85017,1 HUNTWOOD AVE,,PHOENIX,AZ,85017
347,347 CHESTNUT ST PEORIA AZ 85381,347 CHESTNUT ST,,PEORIA,AZ,85381
157,422 E 21ST ST SYRACUSE NY 13214,422 E 21ST ST,,SYRACUSE,NY,13214
266,759 ELDORA ST NEW HAVEN CT 6515,759 ELDORA ST,,NEW HAVEN,CT,6515
309,8573 LINCOLN BLVD YORK PA 17404,8573 LINCOLN BLVD,,YORK,PA,17404
172,9745 W MAIN ST RANDOLPH NJ 7869,9745 W MAIN ST,,RANDOLPH,NJ,7869
181,82 N HIGHWAY 67 OAKLEY CA 94561,82 N HIGHWAY 67,,OAKLEY,CA,94561
283,1950 5TH AVE MILWAUKEE WI 53209,1950 5TH AVE,,MILWAUKEE,WI,53209
197,9939 N 14TH ST RIVERTON NJ 8077,9939 N 14TH ST,,RIVERTON,NJ,8077
223,1 MIDWAY RD WESTBOROUGH MA 1581,1 MIDWAY RD,,WESTBOROUGH,MA,1581
195,3 ELMWOOD DR BEAVERTON OR 97005,3 ELMWOOD DR,,BEAVERTON,OR,97005
376,919 WALL BLVD MERIDIAN MS 39307,919 WALL BLVD,,MERIDIAN,MS,39307
100,3 SECOR RD NEW ORLEANS LA 70112,3 SECOR RD,,NEW ORLEANS,LA,70112
373,41 STEEL CT NORTHFIELD MN 55057,41 STEEL CT,,NORTHFIELD,MN,55057
105,4 10TH ST W HIGH POINT NC 27263,4 10TH ST,,W HIGH POINT,NC,27263
244,8 MCARTHUR LN RICHBORO PA 18954,8 MCARTHUR LN,,RICHBORO,PA,18954
381,45 E ACACIA CT CHICAGO IL 60624,45 E ACACIA CT,,CHICAGO,IL,60624
108,64 LAKEVIEW AVE BELOIT WI 53511,64 LAKEVIEW AVE,,BELOIT,WI,53511
461,2 A KELLEY DR KATONAH NY 10536,2 A KELLEY DR,,KATONAH,NY,10536
332,88 15TH AVE NE VESTAL NY 13850,88 15TH AVE NE,,VESTAL,NY,13850
440,278 BAYVIEW AVE MILAN MI 48160,278 BAYVIEW AVE,,MILAN,MI,48160
395,8429 MILLER RD PELHAM NY 10803,8429 MILLER RD,,PELHAM,NY,10803
110,32860 SIERRA RD MIAMI FL 33133,32860 SIERRA RD,,MIAMI,FL,33133
216,8739 HUDSON ST VASHON WA 98070,8739 HUDSON ST,,VASHON,WA,98070
320,5 WILLIAMS ST JOHNSTON RI 2919,5 WILLIAMS ST,,JOHNSTON,RI,2919
49,762 S MAIN ST MADISON WI 53711,762 S MAIN ST,,MADISON,WI,53711
397,2 FLYNN RD HICKSVILLE NY 11801,2 FLYNN RD,,HICKSVILLE,NY,11801
480,2184 WORTH ST HAYWARD CA 94545,2184 WORTH ST,,HAYWARD,CA,94545
194,406 MAIN ST SOMERVILLE NJ 8876,406 MAIN ST,,SOMERVILLE,NJ,8876
52,39 S 7TH ST TULLAHOMA TN 37388,39 S 7TH ST,,TULLAHOMA,TN,37388
187,195 13N N SANTA CLARA CA 95054,195 13N N,,SANTA CLARA,CA,95054
477,5 E TRUMAN RD ABILENE TX 79602,5 E TRUMAN RD,,ABILENE,TX,79602
289,9648 S MAIN SALISBURY MD 21801,9648 S MAIN,,SALISBURY,MD,21801
297,9 WAYDELL ST FAIRFIELD NJ 7004,9 WAYDELL ST,,FAIRFIELD,NJ,7004
47,38938 PARK BLVD BOSTON MA 2128,38938 PARK BLVD,,BOSTON,MA,2128
485,20113 4TH AVE E KEARNY NJ 7032,20113 4TH AVE E,,KEARNY,NJ,7032
436,72 SOUTHERN BLVD MESA AZ 85204,72 SOUTHERN BLVD,,MESA,AZ,85204
412,2 W GRAND AVE MEMPHIS TN 38112,2 W GRAND AVE,,MEMPHIS,TN,38112
122,2 MONROE ST SAN MATEO CA 94403,2 MONROE ST,,SAN MATEO,CA,94403
70,74 W COLLEGE ST BOISE ID 83707,74 W COLLEGE ST,,BOISE,ID,83707
245,8 FAIR LAWN AVE TAMPA FL 33614,8 FAIR LAWN AVE,,TAMPA,FL,33614
5,34 CENTER ST HAMILTON OH 45011,34 CENTER ST,,HAMILTON,OH,45011
494,9 FRONT ST WASHINGTON DC 20001,9 FRONT ST,,WASHINGTON,DC,20001
417,4 IWAENA ST BALTIMORE MD 21202,4 IWAENA ST,,BALTIMORE,MD,21202
112,2 SE 3RD AVE MESQUITE TX 75149,2 SE 3RD AVE,,MESQUITE,TX,75149
4,639 MAIN ST ANCHORAGE AK 99501,639 MAIN ST,,ANCHORAGE,AK,99501
364,8728 S BROAD ST CORAM NY 11727,8728 S BROAD ST,,CORAM,NY,11727
61,201 HAWK CT PROVIDENCE RI 2904,201 HAWK CT,,PROVIDENCE,RI,2904
226,87 SIERRA RD EL MONTE CA 91731,87 SIERRA RD,,EL MONTE,CA,91731
367,187 MARKET ST ATLANTA GA 30342,187 MARKET ST,,ATLANTA,GA,30342
230,23 PALO ALTO SQ MIAMI FL 33134,23 PALO ALTO SQ,,MIAMI,FL,33134
271,25346 NEW RD NEW YORK NY 10016,25346 NEW RD,,NEW YORK,NY,10016
77,6 KAINS AVE BALTIMORE MD 21215,6 KAINS AVE,,BALTIMORE,MD,21215
396,5 W 7TH ST PARKVILLE MD 21234,5 W 7TH ST,,PARKVILLE,MD,21234
200,37855 NOLAN RD BANGOR ME 4401,37855 NOLAN RD,,BANGOR,ME,4401
470,13 GUNNISON ST PLANO TX 75075,13 GUNNISON ST,,PLANO,TX,75075
36,426 WOLF ST METAIRIE LA 70002,426 WOLF ST,,METAIRIE,LA,70002
30,386 9TH AVE N CONROE TX 77301,386 9TH AVE N,,CONROE,TX,77301
125,9 NORRISTOWN RD TROY NY 12180,9 NORRISTOWN RD,,TROY,NY,12180
118,7 BENTON DR HONOLULU HI 96819,7 BENTON DR,,HONOLULU,HI,96819
166,9635 S MAIN ST BOISE ID 83704,9635 S MAIN ST,,BOISE,ID,83704
399,649 TULANE AVE TULSA OK 74105,649 TULANE AVE,,TULSA,OK,74105
80,6794 LAKE DR E NEWARK NJ 7104,6794 LAKE DR E,,NEWARK,NJ,7104
491,8284 HART ST ABILENE KS 67410,8284 HART ST,,ABILENE,KS,67410
6,3 MCAULEY DR ASHLAND OH 44805,3 MCAULEY DR,,ASHLAND,OH,44805
379,3 LAWTON ST NEW YORK NY 10013,3 LAWTON ST,,NEW YORK,NY,10013
405,4 COWESETT AVE KEARNY NJ 7032,4 COWESETT AVE,,KEARNY,NJ,7032
215,99586 MAIN ST DALLAS TX 75207,99586 MAIN ST,,DALLAS,TX,75207
345,3387 RYAN DR HANOVER MD 21076,3387 RYAN DR,,HANOVER,MD,21076
329,99 5TH AVE #33 TRION GA 30753,99 5TH AVE,# 33,TRION,GA,30753
246,9 N 14TH ST EL CAJON CA 92020,9 N 14TH ST,,EL CAJON,CA,92020
393,987 MAIN ST RALEIGH NC 27601,987 MAIN ST,,RALEIGH,NC,27601
132,866 34TH AVE DENVER CO 80231,866 34TH AVE,,DENVER,CO,80231
471,18 3RD AVE NEW YORK NY 10016,18 3RD AVE,,NEW YORK,NY,10016
109,3 ASPEN ST WORCESTER MA 1602,3 ASPEN ST,,WORCESTER,MA,1602
366,1 S PINE ST MEMPHIS TN 38112,1 S PINE ST,,MEMPHIS,TN,38112
415,92 BROADWAY ASTORIA NY 11103,92 BROADWAY,,ASTORIA,NY,11103
425,1644 CLOVE RD MIAMI FL 33155,1644 CLOVE RD,,MIAMI,FL,33155
128,90131 J ST PITTSTOWN NJ 8867,90131 J ST,,PITTSTOWN,NJ,8867
237,48 LENOX ST FAIRFAX VA 22030,48 LENOX ST,,FAIRFAX,VA,22030
315,33 STATE ST ABILENE TX 79601,33 STATE ST,,ABILENE,TX,79601
171,44 58TH ST WHEELING IL 60090,44 58TH ST,,WHEELING,IL,60090
455,6 SUNRISE AVE UTICA NY 13501,6 SUNRISE AVE,,UTICA,NY,13501
444,19 AMBOY AVE MIAMI FL 33142,19 AMBOY AVE,,MIAMI,FL,33142
344,5 CABOT RD MC LEAN VA 22102,5 CABOT RD,,MC LEAN,VA,22102
58,4 OTIS ST VAN NUYS CA 91405,4 OTIS ST,,VAN NUYS,CA,91405
383,77 222 DR OROVILLE CA 95965,77 222 DR,,OROVILLE,CA,95965
34,4 RALPH CT DUNELLEN NJ 8812,4 RALPH CT,,DUNELLEN,NJ,8812
44,678 3RD AVE MIAMI FL 33196,678 3RD AVE,,MIAMI,FL,33196
450,1 N SAN SABA ERIE PA 16501,1 N SAN,,SABA ERIE,PA,16501
93,840 15TH AVE WACO TX 76708,840 15TH AVE,,WACO,TX,76708
130,6 GILSON ST BRONX NY 10468,6 GILSON ST,,BRONX,NY,10468
7,7 EADS ST CHICAGO IL 60632,7 EADS ST,,CHICAGO,IL,60632
21,6 S 33RD ST ASTON PA 19014,6 S 33RD ST,,ASTON,PA,19014
196,9 CHURCH ST SALEM OR 97302,9 CHURCH ST,,SALEM,OR,97302
68,7 W 32ND ST ERIE PA 16502,7 W 32ND ST,,ERIE,PA,16502
111,555 MAIN ST ERIE PA 16502,555 MAIN ST,,ERIE,PA,16502
496,67 RV CENT BOISE ID 83709,67 RV CENT,,BOISE,ID,83709
490,9 HWY PROVIDENCE RI 2906,9 HWY,,PROVIDENCE,RI,2906
